[{"OBJECT_NAME":"LEO EXPRESS 3","OBJECT_ID":"2025-276X","EPOCH":"2026-03-09T17:01:27.083136","MEAN_MOTION":15.18911167,"ECCENTRICITY":0.00089891,"INCLINATION":97.4301,"RA_OF_ASC_NODE":143.9034,"ARG_OF_PERICENTER":143.3594,"MEAN_ANOMALY":216.8257,"EPHEMERIS_TYPE":0,"CLASSIFICATION_TYPE":"U","NORAD_CAT_ID":66687,"ELEMENT_SET_NO":999,"REV_AT_EPOCH":1531,"BSTAR":0.00062123771,"MEAN_MOTION_DOT":0.00012924,"MEAN_MOTION_DDOT":0},{"OBJECT_NAME":"OKEAN-2","OBJECT_ID":"1990-018A","EPOCH":"2026-03-09T23:36:10.183680","MEAN_MOTION":15.15649196,"ECCENTRICITY":0.00049727,"INCLINATION":82.5017,"RA_OF_ASC_NODE":331.5686,"ARG_OF_PERICENTER":303.4328,"MEAN_ANOMALY":67.9927,"EPHEMERIS_TYPE":0,"CLASSIFICATION_TYPE":"U","NORAD_CAT_ID":20510,"ELEMENT_SET_NO":999,"REV_AT_EPOCH":93903,"BSTAR":0.00028442133,"MEAN_MOTION_DOT":5.437e-5,"MEAN_MOTION_DDOT":0}]
